STARLINK-32080          
1 59683U 24086B   26017.92981252 -.00000632  00000+0 -13437-4 0  9999
2 59683  43.0007 350.4602 0001335 252.1382 107.9324 15.27582872 96314
STARLINK-32091          
1 59684U 24086C   26017.58876688  .00001916  00000+0  79117-4 0  9999
2 59684  43.0046 340.9880 0000936 259.5040 100.5706 15.27583872 96390
STARLINK-32085          
1 59685U 24086D   26017.89561051 -.00000454  00000+0 -69740-5 0  9999
2 59685  43.0027 346.7754 0000704 248.1774 111.9003 15.27580792 96344
STARLINK-32100          
1 59686U 24086E   26017.91711481  .00001070  00000+0  48422-4 0  9993
2 59686  43.0045 328.5289 0001253 278.7695  81.3015 15.27578239 96556
STARLINK-32089          
1 59687U 24086F   26017.94557898 -.00000760  00000+0 -18112-4 0  9997
2 59687  43.0008 346.2919 0000687 240.0183 120.0601 15.27574160 96356
STARLINK-32103          
1 59688U 24086G   26017.88037069 -.00000967  00000+0 -25640-4 0  9997
2 59688  43.0023 336.2766 0001167 269.5574  90.5144 15.27561864 96469
STARLINK-32105          
1 59689U 24086H   26017.93915630 -.00002036  00000+0 -64483-4 0  9990
2 59689  43.0037 346.2439 0000627 203.3221 156.7603 15.27580839 96354
STARLINK-32106          
1 59690U 24086J   26017.90414062  .00000490  00000+0  27306-4 0  9995
2 59690  42.9980 339.0594 0000573  30.5220 329.5665 15.27578694 96435
STARLINK-32090          
1 59691U 24086K   26017.92594747  .00002555  00000+0  10230-3 0  9998
2 59691  43.0013 350.4548 0000926 258.0773 101.9975 15.27597136 96307
STARLINK-32088          
1 59693U 24086M   26017.58492135 -.00002793  00000+0 -92032-4 0  9997
2 59693  43.0014 340.9611 0001099 270.8981  89.1745 15.27576402 96383
STARLINK-32107          
1 59694U 24086N   26017.32511570  .00000625  00000+0  32210-4 0  9997
2 59694  43.0023 350.2294 0001149 270.2148  89.8572 15.27596729 96255
STARLINK-32104          
1 59695U 24086P   26017.19353248  .00001709  00000+0  71589-4 0  9995
2 59695  43.0024 347.4246 0001346 271.3767  88.6930 15.27593466 96272
STARLINK-32094          
1 59696U 24086Q   26017.91745572  .00000872  00000+0  41192-4 0  9998
2 59696  43.0005 346.9332 0000806 254.2419 105.8344 15.27578378 96340
STARLINK-32099          
1 59697U 24086R   26017.94300682 -.00002573  00000+0 -83984-4 0  9998
2 59697  43.0038 346.2694 0000776 282.0704  78.0060 15.27585415 96350
STARLINK-32096          
1 59698U 24086S   26017.95715150 -.00003520  00000+0 -11846-3 0  9990
2 59698  43.0050 346.3742 0001082 258.3819 101.6912 15.27575470 96353
STARLINK-32102          
1 59699U 24086T   26017.88404474  .00029695  00000+0  10833-2 0  9990
2 59699  43.0021 346.6878 0000620 275.0489  85.0292 15.27610163 96345
STARLINK-32092          
1 59700U 24086U   26017.96742678 -.00000987  00000+0 -26328-4 0  9996
2 59700  43.0057 346.4505 0001145 260.8170  99.2552 15.27586998 96359
STARLINK-32093          
1 59701U 24086V   26017.31098221 -.00000744  00000+0 -17521-4 0  9990
2 59701  43.0046 350.1232 0001217 240.7716 119.3014 15.27590296 96252
STARLINK-32087          
1 59702U 24086W   26017.29942744  .00006229  00000+0  23580-3 0  9999
2 59702  43.0033 350.0386 0000524 331.4284  28.6539 15.27564555 96259
STARLINK-32086          
1 59703U 24086X   26017.93529688  .00000025  00000+0  10434-4 0  9992
2 59703  43.0017 346.2106 0000663 275.6949  84.3827 15.27574582 96351
STARLINK-32098          
1 59704U 24086Y   26017.32125885  .00001351  00000+0  58593-4 0  9998
2 59704  43.0028 350.2009 0001009 278.6246  81.4492 15.27587096 96258
ZHIHUI TIANWANG-1 01A   
1 59705U 24087A   26017.06203891  .00000054  00000+0  00000+0 0  9999
2 59705  53.1267 176.8081 0022001 195.5589 164.3474  2.00566537 12275
ZHIHUI TIANWANG-1 01B   
1 59706U 24087B   26012.07922963  .00000085  00000+0  00000+0 0  9998
2 59706  53.1260 177.0113 0020264 190.7493 169.1974  2.00565988 11825
STARLINK-11107 [DTC]    
1 59708U 24088A   26016.84438594  .00000370  00000+0  79157-5 0  9994
2 59708  53.1596 221.5440 0001120  86.3946 273.7200 15.69710679 98119
STARLINK-11088 [DTC]    
1 59709U 24088B   26017.91705524 -.00035750  00000+0 -29199-3 0  9995
2 59709  53.1559 216.8716 0000806  86.3559 273.7551 15.69670023 98298
STARLINK-11092 [DTC]    
1 59710U 24088C   26017.84849444 -.00004133  00000+0 -29293-4 0  9996
2 59710  53.1592 217.1515 0001029  72.8285 287.2846 15.69691921 98288
STARLINK-11082 [DTC]    
1 59711U 24088D   26017.90724544 -.00001731  00000+0 -94296-5 0  9994
2 59711  53.1631 216.8047 0001275 104.6044 255.5116 15.69709485 98293
STARLINK-11108 [DTC]    
1 59712U 24088E   26017.90234534 -.00003800  00000+0 -26540-4 0  9995
2 59712  53.1572 216.7716 0001212  74.2954 285.8197 15.69693577 98292
STARLINK-11100 [DTC]    
1 59713U 24088F   26017.83377089 -.00003427  00000+0 -23442-4 0  9994
2 59713  53.1600 217.0512 0001532  92.8591 267.2602 15.69703587 98288
STARLINK-11094 [DTC]    
1 59714U 24088G   26017.95620108  .00000175  00000+0  63076-5 0  9994
2 59714  53.1570 216.3992 0000965  91.5282 268.5846 15.69684663 98301
