OBJECT_NAME,OBJECT_ID,EPOCH,MEAN_MOTION,ECCENTRICITY,INCLINATION,RA_OF_ASC_NODE,ARG_OF_PERICENTER,MEAN_ANOMALY,EPHEMERIS_TYPE,CLASSIFICATION_TYPE,NORAD_CAT_ID,ELEMENT_SET_NO,REV_AT_EPOCH,BSTAR,MEAN_MOTION_DOT,MEAN_MOTION_DDOT
STARLINK-32080,2024-086B,2026-01-17T22:18:55.801728,15.27582872,.0001335,43.0007,350.4602,252.1382,107.9324,0,U,59683,999,9631,-.13437272E-4,-.632E-5,0
STARLINK-32091,2024-086C,2026-01-17T14:07:49.458432,15.27583872,.00009366,43.0046,340.9880,259.5040,100.5706,0,U,59684,999,9639,.79117063E-4,.1916E-4,0
STARLINK-32085,2024-086D,2026-01-17T21:29:40.748064,15.27580792,.00007042,43.0027,346.7754,248.1774,111.9003,0,U,59685,999,9634,-.6973984E-5,-.454E-5,0
STARLINK-32100,2024-086E,2026-01-17T22:00:38.719584,15.27578239,.00012539,43.0045,328.5289,278.7695,81.3015,0,U,59686,999,9655,.4842207E-4,.107E-4,0
STARLINK-32089,2024-086F,2026-01-17T22:41:38.023872,15.27574160,.00006872,43.0008,346.2919,240.0183,120.0601,0,U,59687,999,9635,-.18111531E-4,-.76E-5,0
STARLINK-32103,2024-086G,2026-01-17T21:07:44.027616,15.27561864,.00011673,43.0023,336.2766,269.5574,90.5144,0,U,59688,999,9646,-.2563964E-4,-.967E-5,0
STARLINK-32105,2024-086H,2026-01-17T22:32:23.104320,15.27580839,.00006271,43.0037,346.2439,203.3221,156.7603,0,U,59689,999,9635,-.64483418E-4,-.2036E-4,0
STARLINK-32106,2024-086J,2026-01-17T21:41:57.749568,15.27578694,.00005737,42.9980,339.0594,30.5220,329.5665,0,U,59690,999,9643,.27305664E-4,.49E-5,0
STARLINK-32090,2024-086K,2026-01-17T22:13:21.861408,15.27597136,.00009265,43.0013,350.4548,258.0773,101.9975,0,U,59691,999,9630,.1022973E-3,.2555E-4,0
STARLINK-32088,2024-086M,2026-01-17T14:02:17.204640,15.27576402,.00010991,43.0014,340.9611,270.8981,89.1745,0,U,59693,999,9638,-.92031754E-4,-.2793E-4,0
STARLINK-32107,2024-086N,2026-01-17T07:48:09.996480,15.27596729,.00011497,43.0023,350.2294,270.2148,89.8572,0,U,59694,999,9625,.3220974E-4,.625E-5,0
STARLINK-32104,2024-086P,2026-01-17T04:38:41.206272,15.27593466,.0001346,43.0024,347.4246,271.3767,88.6930,0,U,59695,999,9627,.71588916E-4,.1709E-4,0
STARLINK-32094,2024-086Q,2026-01-17T22:01:08.174208,15.27578378,.00008069,43.0005,346.9332,254.2419,105.8344,0,U,59696,999,9634,.41191762E-4,.872E-5,0
STARLINK-32099,2024-086R,2026-01-17T22:37:55.789248,15.27585415,.00007767,43.0038,346.2694,282.0704,78.0060,0,U,59697,999,9635,-.83983813E-4,-.2573E-4,0
STARLINK-32096,2024-086S,2026-01-17T22:58:17.889600,15.27575470,.00010821,43.0050,346.3742,258.3819,101.6912,0,U,59698,999,9635,-.11846135E-3,-.352E-4,0
STARLINK-32102,2024-086T,2026-01-17T21:13:01.465536,15.27610163,.00006201,43.0021,346.6878,275.0489,85.0292,0,U,59699,999,9634,.10833068E-2,.29695E-3,0
STARLINK-32092,2024-086U,2026-01-17T23:13:05.673792,15.27586998,.00011459,43.0057,346.4505,260.8170,99.2552,0,U,59700,999,9635,-.26327845E-4,-.987E-5,0
STARLINK-32093,2024-086V,2026-01-17T07:27:48.862944,15.27590296,.00012173,43.0046,350.1232,240.7716,119.3014,0,U,59701,999,9625,-.17520782E-4,-.744E-5,0
STARLINK-32087,2024-086W,2026-01-17T07:11:10.530816,15.27564555,.00005248,43.0033,350.0386,331.4284,28.6539,0,U,59702,999,9625,.23580465E-3,.6229E-4,0
STARLINK-32086,2024-086X,2026-01-17T22:26:49.650432,15.27574582,.00006633,43.0017,346.2106,275.6949,84.3827,0,U,59703,999,9635,.10433856E-4,.25E-6,0
STARLINK-32098,2024-086Y,2026-01-17T07:42:36.764640,15.27587096,.00010094,43.0028,350.2009,278.6246,81.4492,0,U,59704,999,9625,.58592682E-4,.1351E-4,0
ZHIHUI TIANWANG-1 01A,2024-087A,2026-01-17T01:29:20.161824,2.00566537,.00220011,53.1267,176.8081,195.5589,164.3474,0,U,59705,999,1227,0,.54E-6,0
ZHIHUI TIANWANG-1 01B,2024-087B,2026-01-12T01:54:05.440032,2.00565988,.00202649,53.1260,177.0113,190.7493,169.1974,0,U,59706,999,1182,0,.85E-6,0
STARLINK-11107 [DTC],2024-088A,2026-01-16T20:15:54.945216,15.69710679,.00011204,53.1596,221.5440,86.3946,273.7200,0,U,59708,999,9811,.7915692E-5,.37E-5,0
STARLINK-11088 [DTC],2024-088B,2026-01-17T22:00:33.572736,15.69670023,.00008065,53.1559,216.8716,86.3559,273.7551,0,U,59709,999,9829,-.2919865E-3,-.3575E-3,0
STARLINK-11092 [DTC],2024-088C,2026-01-17T20:21:49.919616,15.69691921,.00010294,53.1592,217.1515,72.8285,287.2846,0,U,59710,999,9828,-.29293075E-4,-.4133E-4,0
STARLINK-11082 [DTC],2024-088D,2026-01-17T21:46:26.006016,15.69709485,.00012756,53.1631,216.8047,104.6044,255.5116,0,U,59711,999,9829,-.9429572E-5,-.1731E-4,0
STARLINK-11108 [DTC],2024-088E,2026-01-17T21:39:22.637376,15.69693577,.00012128,53.1572,216.7716,74.2954,285.8197,0,U,59712,999,9829,-.26540439E-4,-.38E-4,0
STARLINK-11100 [DTC],2024-088F,2026-01-17T20:00:37.804896,15.69703587,.00015327,53.1600,217.0512,92.8591,267.2602,0,U,59713,999,9828,-.23442317E-4,-.3427E-4,0
STARLINK-11094 [DTC],2024-088G,2026-01-17T22:56:55.773312,15.69684663,.00009655,53.1570,216.3992,91.5282,268.5846,0,U,59714,999,9830,.6307638E-5,.175E-5,0
